     2.11           G: GLONASS NAV DATA                     RINEX VERSION / TYPE
gfzrnx-1.11-7352    FILE MERGE          20210304 001345 UTC PGM / RUN BY / DATE 
    18                  GPS                                 LEAP SECONDS        
                                                            END OF HEADER
01 21  3  3 15 15  0.0 7.580313831568e-05 0.000000000000e+00 9.000000000000e+02
    1.112745436103e+04-5.052399871192e-01 9.313225746155e-10 0.000000000000e+00
   -2.088958397952e+04 1.210489034054e+00 0.000000000000e+00 1.000000000000e+00
   -9.536263560899e+03-3.239417379637e+00-2.793967723846e-09 0.000000000000e+00
01 21  3  3 15 45  0.0 7.580313831568e-05 0.000000000000e+00 9.000000000000e+02
    1.024073184325e+04-4.405052851777e-01 9.313225746155e-10 0.000000000000e+00
   -1.798548861962e+04 1.997146670147e+00 0.000000000000e+00 1.000000000000e+00
   -1.492365128084e+04-2.707730007879e+00-2.793967723846e-09 0.000000000000e+00
01 21  3  3 16 15  0.0 7.580313831568e-05 0.000000000000e+00 9.000000000000e+02
    9.669876703616e+03-1.633365553361e-01 9.313225746155e-10 0.000000000000e+00
   -1.379994908699e+04 2.617795995111e+00 0.000000000000e+00 1.000000000000e+00
   -1.915823867676e+04-1.966831138086e+00-2.793967723846e-09 0.000000000000e+00
01 21  3  3 16 45  0.0 7.580313831568e-05 0.000000000000e+00 9.000000000000e+02
    9.737664227680e+03 2.545272070817e-01 9.313225746155e-10 0.000000000000e+00
   -8.712320476025e+03 2.988223794771e+00 0.000000000000e+00 1.000000000000e+00
   -2.191279166157e+04-1.073907712588e+00-2.793967723846e-09 0.000000000000e+00
01 21  3  3 17 15  0.0 7.580313831568e-05 0.000000000000e+00 9.000000000000e+02
    1.061224162661e+04 7.155283031478e-01 9.313225746155e-10 0.000000000000e+00
   -3.221433461459e+03 3.061694955762e+00 0.000000000000e+00 1.000000000000e+00
   -2.297431888652e+04-9.788834515863e-02-2.793967723846e-09 0.000000000000e+00
01 21  3  3 17 45  0.0 7.580313831568e-05 0.000000000000e+00 9.000000000000e+02
    1.227530067448e+04 1.113069302943e+00 9.313225746155e-10 0.000000000000e+00
    2.129592139455e+03 2.836380690276e+00 0.000000000000e+00 1.000000000000e+00
   -2.226054033026e+04 8.858581836777e-01-2.793967723846e-09 0.000000000000e+00
01 21  3  3 18 15  0.0 7.580313831568e-05 0.000000000000e+00 9.000000000000e+02
    1.452229589230e+04 1.349839776051e+00 9.313225746155e-10 0.000000000000e+00
    6.835398706571e+03 2.355452495108e+00 0.000000000000e+00 1.000000000000e+00
   -1.982630712701e+04 1.801317129912e+00-2.793967723846e-09 0.000000000000e+00
01 21  3  3 18 45  0.0 7.580313831568e-05 0.000000000000e+00 9.000000000000e+02
    1.699475871837e+04 1.354649602628e+00 9.313225746155e-10 0.000000000000e+00
    1.050390614684e+04 1.699826312026e+00 0.000000000000e+00 1.000000000000e+00
   -1.585946821353e+04 2.577686668895e+00-2.793967723846e-09 0.000000000000e+00
01 21  3  3 19 15  0.0 7.580313831568e-05 0.000000000000e+00 9.000000000000e+02
    1.923942300451e+04 1.094963418328e+00 9.313225746155e-10 0.000000000000e+00
    1.291295747355e+04 9.747428363747e-01 0.000000000000e+00 1.000000000000e+00
   -1.066646085681e+04 3.154864345117e+00-2.793967723846e-09 0.000000000000e+00
01 21  3  3 19 45  0.0 7.580313831568e-05 0.000000000000e+00 9.000000000000e+02
    2.078438936887e+04 5.830253837757e-01 9.313225746155e-10 0.000000000000e+00
    1.403885325019e+04 2.923888859171e-01 0.000000000000e+00 1.000000000000e+00
   -4.648681511470e+03 3.488136376779e+00-2.793967723846e-09 0.000000000000e+00
01 21  3  3 20 15  0.0 7.580313831568e-05 0.000000000000e+00 9.000000000000e+02
    2.121966143643e+04-1.254830682532e-01 9.313225746155e-10 0.000000000000e+00
    1.405216928613e+04-2.465641659502e-01 0.000000000000e+00 1.000000000000e+00
    1.728575081635e+03 3.551687717464e+00-2.793967723846e-09 0.000000000000e+00
01 21  3  3 20 45  0.0 7.580313831568e-05 0.000000000000e+00 9.000000000000e+02
    2.026859296098e+04-9.400615328035e-01 9.313225746155e-10 0.000000000000e+00
    1.328168595764e+04-5.694284849032e-01 0.000000000000e+00 1.000000000000e+00
    7.972200340003e+03 3.340632731703e+00-2.793967723846e-09 0.000000000000e+00
01 21  3  3 21 15  0.0 7.580313831568e-05 0.000000000000e+00 9.000000000000e+02
    1.783825686324e+04-1.749861941117e+00 9.313225746155e-10 0.000000000000e+00
    1.215258351018e+04-6.432194948737e-01 0.000000000000e+00 1.000000000000e+00
    1.359953565442e+04 2.871388236136e+00-2.793967723846e-09 0.000000000000e+00
01 21  3  3 21 45  0.0 7.584877312183e-05 0.000000000000e+00 7.920000000000e+04
    1.398752050781e+04-2.446593284607e+00 0.000000000000e+00 0.000000000000e+00
    1.111610449219e+04-4.793424606323e-01 9.313225746155e-10 1.000000000000e+00
    1.820233886719e+04 2.174216270447e+00-1.862645149231e-09 0.000000000000e+00
01 21  3  3 22 15  0.0 7.584970444441e-05 0.000000000000e+00 8.010000000000e+04
    9.118114257812e+03-2.921209335327e+00 0.000000000000e+00 0.000000000000e+00
    1.054431152344e+04-1.319122314453e-01 0.000000000000e+00 1.000000000000e+00
    2.136160644531e+04 1.313332557678e+00-2.793967723846e-09 0.000000000000e+00
01 21  3  3 22 45  0.0 7.585063576698e-05 0.000000000000e+00 8.190000000000e+04
    3.641004882812e+03-3.114203453064e+00 0.000000000000e+00 0.000000000000e+00
    1.069933984375e+04 3.117876052856e-01 0.000000000000e+00 1.000000000000e+00
    2.286942626953e+04 3.511924743652e-01-2.793967723846e-09 0.000000000000e+00
01 21  3  3 23 15  0.0 7.585342973471e-05 0.000000000000e+00 8.370000000000e+04
   -1.909188964844e+03-3.002378463745e+00 9.313225746155e-10 0.000000000000e+00
    1.166190283203e+04 7.474298477173e-01 0.000000000000e+00 1.000000000000e+00
    2.260972314453e+04-6.378421783447e-01-2.793967723846e-09 0.000000000000e+00
01 21  3  3 23 45  0.0 7.585436105728e-05 0.000000000000e+00 8.550000000000e+04
   -6.997445312500e+03-2.608461380005e+00 9.313225746155e-10 0.000000000000e+00
    1.332254248047e+04 1.071122169495e+00-9.313225746155e-10 1.000000000000e+00
    2.060295117188e+04-1.577414512634e+00-2.793967723846e-09 0.000000000000e+00
24 21  3  3  0 15  0.0 3.356300294399e-05 1.818989403546e-12 3.090000000000e+04
    2.145011671978e+04 1.277496894391e+00 0.000000000000e+00 0.000000000000e+00
    8.911856597929e+03 6.910267427160e-01 3.725290298462e-09 2.000000000000e+00
    1.056285283061e+04-3.183969158677e+00-9.313225746155e-10 0.000000000000e+00
24 21  3  3  0 45  0.0 3.356300294399e-05 1.818989403546e-12 3.090000000000e+04
    2.319555486554e+04 6.269873515836e-01 0.000000000000e+00 0.000000000000e+00
    9.621485291335e+03 1.219700054375e-01 3.725290298462e-09 2.000000000000e+00
    4.497648822843e+03-3.511447839487e+00-9.313225746155e-10 0.000000000000e+00
24 21  3  3  1 15  0.0 3.356300294399e-05 1.818989403546e-12 3.090000000000e+04
    2.360805701742e+04-1.879022414912e-01 0.000000000000e+00 0.000000000000e+00
    9.463144512141e+03-2.612915707638e-01 3.725290298462e-09 2.000000000000e+00
   -1.915151359659e+03-3.567618314041e+00-9.313225746155e-10 0.000000000000e+00
24 21  3  3  1 45  0.0 3.356300294399e-05 1.818989403546e-12 3.090000000000e+04
    2.248351593212e+04-1.061705815904e+00 0.000000000000e+00 0.000000000000e+00
    8.824855327466e+03-4.060114626086e-01 3.725290298462e-09 2.000000000000e+00
   -8.179744138677e+03-3.347788414802e+00-9.313225746155e-10 0.000000000000e+00
24 21  3  3  2 15  0.0 3.356300294399e-05 1.818989403546e-12 3.090000000000e+04
    1.982111251215e+04-1.877088103512e+00 0.000000000000e+00 0.000000000000e+00
    8.150897100415e+03-3.032748555420e-01 3.725290298462e-09 2.000000000000e+00
   -1.381122484413e+04-2.868697127201e+00-9.313225746155e-10 0.000000000000e+00
24 21  3  3  2 45  0.0 3.356300294399e-05 1.818989403546e-12 3.090000000000e+04
    1.582772999406e+04-2.523764519491e+00 0.000000000000e+00 0.000000000000e+00
    7.860638597844e+03 1.076669645127e-02 3.725290298462e-09 2.000000000000e+00
   -1.837331149901e+04-2.167286119452e+00-9.313225746155e-10 0.000000000000e+00
24 21  3  3  3 15  0.0 3.356300294399e-05 1.818989403546e-12 3.090000000000e+04
    1.088881071873e+04-2.916337842972e+00 0.000000000000e+00 0.000000000000e+00
    8.272062570522e+03 4.612741836755e-01 3.725290298462e-09 2.000000000000e+00
   -2.151237628938e+04-1.297852290631e+00-9.313225746155e-10 0.000000000000e+00
24 21  3  3  3 45  0.0 3.356300294399e-05 1.818989403546e-12 3.090000000000e+04
    5.510362526103e+03-3.008062245280e+00 0.000000000000e+00 0.000000000000e+00
    9.542921555879e+03 9.476541465572e-01 3.725290298462e-09 2.000000000000e+00
   -2.298505725942e+04-3.278115447746e-01-9.313225746155e-10 0.000000000000e+00
24 21  3  3  4 15  0.0 3.356300294399e-05 1.818989403546e-12 3.090000000000e+04
    2.416536979308e+02-2.798233427247e+00 0.000000000000e+00 0.000000000000e+00
    1.163950921430e+04 1.360871819491e+00 3.725290298462e-09 2.000000000000e+00
   -2.267724959592e+04 6.675772112807e-01-9.313225746155e-10 0.000000000000e+00
24 21  3  3  4 45  0.0 3.356300294399e-05 1.818989403546e-12 3.090000000000e+04
   -4.408646685689e+03-2.331980770657e+00 0.000000000000e+00 0.000000000000e+00
    1.433838541446e+04 1.602231238946e+00 3.725290298462e-09 2.000000000000e+00
   -2.061298121470e+04 1.611100013355e+00-9.313225746155e-10 0.000000000000e+00
24 21  3  3  5 15  0.0 3.356300294399e-05 1.818989403546e-12 3.090000000000e+04
   -8.049056197879e+03-1.692511976251e+00 0.000000000000e+00 0.000000000000e+00
    1.726085125185e+04 1.600465781895e+00 3.725290298462e-09 2.000000000000e+00
   -1.695248850629e+04 2.429620393940e+00-9.313225746155e-10 0.000000000000e+00
24 21  3  3  5 45  0.0 3.356300294399e-05 1.818989403546e-12 3.090000000000e+04
   -1.046200880114e+04-9.871183439231e-01 0.000000000000e+00 0.000000000000e+00
    1.993446793890e+04 1.324268503610e+00 3.725290298462e-09 2.000000000000e+00
   -1.197965926813e+04 3.059783293967e+00-9.313225746155e-10 0.000000000000e+00
